[{"OBJECT_NAME":"IRIDIUM 152","OBJECT_ID":"2018-047D","EPOCH":"2026-04-05T11:20:50.157600","MEAN_MOTION":14.34217637,"ECCENTRICITY":0.00020019,"INCLINATION":86.3932,"RA_OF_ASC_NODE":118.7454,"ARG_OF_PERICENTER":91.3147,"MEAN_ANOMALY":268.8278,"EPHEMERIS_TYPE":0,"CLASSIFICATION_TYPE":"U","NORAD_CAT_ID":43479,"ELEMENT_SET_NO":999,"REV_AT_EPOCH":41206,"BSTAR":-3.411929e-6,"MEAN_MOTION_DOT":1.0e-7,"MEAN_MOTION_DDOT":0},{"OBJECT_NAME":"IRIDIUM 147","OBJECT_ID":"2018-047E","EPOCH":"2026-04-05T13:10:26.243904","MEAN_MOTION":14.34217932,"ECCENTRICITY":0.00023784,"INCLINATION":86.3931,"RA_OF_ASC_NODE":118.7177,"ARG_OF_PERICENTER":92.5247,"MEAN_ANOMALY":267.6221,"EPHEMERIS_TYPE":0,"CLASSIFICATION_TYPE":"U","NORAD_CAT_ID":43480,"ELEMENT_SET_NO":999,"REV_AT_EPOCH":41207,"BSTAR":7.794624e-6,"MEAN_MOTION_DOT":4.2e-7,"MEAN_MOTION_DDOT":0},{"OBJECT_NAME":"IRIDIUM 110","OBJECT_ID":"2018-047F","EPOCH":"2026-04-05T13:19:34.162464","MEAN_MOTION":14.34217715,"ECCENTRICITY":0.00019691,"INCLINATION":86.3932,"RA_OF_ASC_NODE":118.8049,"ARG_OF_PERICENTER":85.6061,"MEAN_ANOMALY":274.536,"EPHEMERIS_TYPE":0,"CLASSIFICATION_TYPE":"U","NORAD_CAT_ID":43481,"ELEMENT_SET_NO":999,"REV_AT_EPOCH":41206,"BSTAR":-2.175184e-6,"MEAN_MOTION_DOT":1.4e-7,"MEAN_MOTION_DDOT":0},{"OBJECT_NAME":"IRIDIUM 162","OBJECT_ID":"2018-047G","EPOCH":"2026-04-05T13:45:32.354496","MEAN_MOTION":14.43277328,"ECCENTRICITY":0.00022445,"INCLINATION":86.4453,"RA_OF_ASC_NODE":118.7349,"ARG_OF_PERICENTER":94.9373,"MEAN_ANOMALY":265.2084,"EPHEMERIS_TYPE":0,"CLASSIFICATION_TYPE":"U","NORAD_CAT_ID":43482,"ELEMENT_SET_NO":999,"REV_AT_EPOCH":41465,"BSTAR":5.2946634e-5,"MEAN_MOTION_DOT":1.98e-6,"MEAN_MOTION_DDOT":0},{"OBJECT_NAME":"IRIDIUM 160","OBJECT_ID":"2018-061A","EPOCH":"2026-04-05T12:01:34.381632","MEAN_MOTION":14.34217917,"ECCENTRICITY":0.00022124,"INCLINATION":86.3914,"RA_OF_ASC_NODE":87.1923,"ARG_OF_PERICENTER":86.408,"MEAN_ANOMALY":273.7369,"EPHEMERIS_TYPE":0,"CLASSIFICATION_TYPE":"U","NORAD_CAT_ID":43569,"ELEMENT_SET_NO":999,"REV_AT_EPOCH":40295,"BSTAR":7.412919e-6,"MEAN_MOTION_DOT":4.1e-7,"MEAN_MOTION_DDOT":0},{"OBJECT_NAME":"IRIDIUM 166","OBJECT_ID":"2018-061B","EPOCH":"2026-04-05T10:57:38.473056","MEAN_MOTION":14.34217603,"ECCENTRICITY":0.00022405,"INCLINATION":86.3911,"RA_OF_ASC_NODE":87.1625,"ARG_OF_PERICENTER":89.853,"MEAN_ANOMALY":270.2923,"EPHEMERIS_TYPE":0,"CLASSIFICATION_TYPE":"U","NORAD_CAT_ID":43570,"ELEMENT_SET_NO":999,"REV_AT_EPOCH":40297,"BSTAR":-1.716698e-6,"MEAN_MOTION_DOT":1.5e-7,"MEAN_MOTION_DDOT":0},{"OBJECT_NAME":"IRIDIUM 158","OBJECT_ID":"2018-061C","EPOCH":"2026-04-05T11:52:26.401728","MEAN_MOTION":14.34217339,"ECCENTRICITY":0.00020106,"INCLINATION":86.3911,"RA_OF_ASC_NODE":87.1565,"ARG_OF_PERICENTER":92.1965,"MEAN_ANOMALY":267.9461,"EPHEMERIS_TYPE":0,"CLASSIFICATION_TYPE":"U","NORAD_CAT_ID":43571,"ELEMENT_SET_NO":999,"REV_AT_EPOCH":40294,"BSTAR":-1.1096759e-5,"MEAN_MOTION_DOT":-1.1e-7,"MEAN_MOTION_DDOT":0},{"OBJECT_NAME":"IRIDIUM 165","OBJECT_ID":"2018-061D","EPOCH":"2026-04-05T12:28:58.373184","MEAN_MOTION":14.34217304,"ECCENTRICITY":0.00022546,"INCLINATION":86.3915,"RA_OF_ASC_NODE":87.191,"ARG_OF_PERICENTER":89.8287,"MEAN_ANOMALY":270.3167,"EPHEMERIS_TYPE":0,"CLASSIFICATION_TYPE":"U","NORAD_CAT_ID":43572,"ELEMENT_SET_NO":999,"REV_AT_EPOCH":40297,"BSTAR":-1.4851114e-5,"MEAN_MOTION_DOT":-2.2e-7,"MEAN_MOTION_DDOT":0},{"OBJECT_NAME":"IRIDIUM 155","OBJECT_ID":"2018-061E","EPOCH":"2026-04-05T11:34:10.372800","MEAN_MOTION":14.3421756,"ECCENTRICITY":0.00021487,"INCLINATION":86.3909,"RA_OF_ASC_NODE":87.0794,"ARG_OF_PERICENTER":93.4672,"MEAN_ANOMALY":266.677,"EPHEMERIS_TYPE":0,"CLASSIFICATION_TYPE":"U","NORAD_CAT_ID":43573,"ELEMENT_SET_NO":999,"REV_AT_EPOCH":40293,"BSTAR":-5.205806e-6,"MEAN_MOTION_DOT":5.0e-8,"MEAN_MOTION_DDOT":0},{"OBJECT_NAME":"IRIDIUM 154","OBJECT_ID":"2018-061F","EPOCH":"2026-04-05T09:26:18.440736","MEAN_MOTION":14.34217682,"ECCENTRICITY":0.00024202,"INCLINATION":86.3913,"RA_OF_ASC_NODE":87.2464,"ARG_OF_PERICENTER":89.3085,"MEAN_ANOMALY":270.8388,"EPHEMERIS_TYPE":0,"CLASSIFICATION_TYPE":"U","NORAD_CAT_ID":43574,"ELEMENT_SET_NO":999,"REV_AT_EPOCH":40297,"BSTAR":-4.313074e-6,"MEAN_MOTION_DOT":8.0e-8,"MEAN_MOTION_DDOT":0},{"OBJECT_NAME":"IRIDIUM 163","OBJECT_ID":"2018-061G","EPOCH":"2026-04-05T12:19:50.372544","MEAN_MOTION":14.34217532,"ECCENTRICITY":0.0002032,"INCLINATION":86.3911,"RA_OF_ASC_NODE":87.1137,"ARG_OF_PERICENTER":90.3334,"MEAN_ANOMALY":269.8095,"EPHEMERIS_TYPE":0,"CLASSIFICATION_TYPE":"U","NORAD_CAT_ID":43575,"ELEMENT_SET_NO":999,"REV_AT_EPOCH":40296,"BSTAR":-1.673011e-6,"MEAN_MOTION_DOT":1.5e-7,"MEAN_MOTION_DDOT":0},{"OBJECT_NAME":"IRIDIUM 156","OBJECT_ID":"2018-061H","EPOCH":"2026-04-05T11:43:18.247296","MEAN_MOTION":14.34217491,"ECCENTRICITY":0.00022781,"INCLINATION":86.3909,"RA_OF_ASC_NODE":87.1314,"ARG_OF_PERICENTER":93.7096,"MEAN_ANOMALY":266.4361,"EPHEMERIS_TYPE":0,"CLASSIFICATION_TYPE":"U","NORAD_CAT_ID":43576,"ELEMENT_SET_NO":999,"REV_AT_EPOCH":40295,"BSTAR":3.188304e-5,"MEAN_MOTION_DOT":1.09e-6,"MEAN_MOTION_DDOT":0},{"OBJECT_NAME":"IRIDIUM 164","OBJECT_ID":"2018-061J","EPOCH":"2026-04-05T11:15:54.393984","MEAN_MOTION":14.34217408,"ECCENTRICITY":0.00022686,"INCLINATION":86.3912,"RA_OF_ASC_NODE":87.1789,"ARG_OF_PERICENTER":86.0516,"MEAN_ANOMALY":274.0939,"EPHEMERIS_TYPE":0,"CLASSIFICATION_TYPE":"U","NORAD_CAT_ID":43577,"ELEMENT_SET_NO":999,"REV_AT_EPOCH":40299,"BSTAR":-1.9285883e-5,"MEAN_MOTION_DOT":-3.4e-7,"MEAN_MOTION_DDOT":0},{"OBJECT_NAME":"IRIDIUM 159","OBJECT_ID":"2018-061K","EPOCH":"2026-04-05T12:10:42.324384","MEAN_MOTION":14.34217913,"ECCENTRICITY":0.00021349,"INCLINATION":86.3911,"RA_OF_ASC_NODE":87.101,"ARG_OF_PERICENTER":86.256,"MEAN_ANOMALY":273.888,"EPHEMERIS_TYPE":0,"CLASSIFICATION_TYPE":"U","NORAD_CAT_ID":43578,"ELEMENT_SET_NO":999,"REV_AT_EPOCH":40296,"BSTAR":5.132176e-6,"MEAN_MOTION_DOT":3.4e-7,"MEAN_MOTION_DDOT":0},{"OBJECT_NAME":"IRIDIUM 180","OBJECT_ID":"2019-002A","EPOCH":"2026-04-05T12:09:58.857408","MEAN_MOTION":14.34218062,"ECCENTRICITY":0.00021499,"INCLINATION":86.4016,"RA_OF_ASC_NODE":23.9623,"ARG_OF_PERICENTER":82.0267,"MEAN_ANOMALY":278.1173,"EPHEMERIS_TYPE":0,"CLASSIFICATION_TYPE":"U","NORAD_CAT_ID":43922,"ELEMENT_SET_NO":999,"REV_AT_EPOCH":37857,"BSTAR":7.3060382e-5,"MEAN_MOTION_DOT":2.24e-6,"MEAN_MOTION_DDOT":0},{"OBJECT_NAME":"IRIDIUM 176","OBJECT_ID":"2019-002B","EPOCH":"2026-04-05T07:08:33.111744","MEAN_MOTION":14.72254562,"ECCENTRICITY":0.0002665,"INCLINATION":86.6136,"RA_OF_ASC_NODE":24.0034,"ARG_OF_PERICENTER":85.4816,"MEAN_ANOMALY":274.6706,"EPHEMERIS_TYPE":0,"CLASSIFICATION_TYPE":"U","NORAD_CAT_ID":43923,"ELEMENT_SET_NO":999,"REV_AT_EPOCH":38852,"BSTAR":0.00023459,"MEAN_MOTION_DOT":1.504e-5,"MEAN_MOTION_DDOT":0},{"OBJECT_NAME":"IRIDIUM 168","OBJECT_ID":"2019-002C","EPOCH":"2026-04-05T12:00:50.776416","MEAN_MOTION":14.34216982,"ECCENTRICITY":0.00021605,"INCLINATION":86.4019,"RA_OF_ASC_NODE":24.0401,"ARG_OF_PERICENTER":85.5657,"MEAN_ANOMALY":274.5785,"EPHEMERIS_TYPE":0,"CLASSIFICATION_TYPE":"U","NORAD_CAT_ID":43924,"ELEMENT_SET_NO":999,"REV_AT_EPOCH":37855,"BSTAR":0.00011507952,"MEAN_MOTION_DOT":3.42e-6,"MEAN_MOTION_DDOT":0}]
