IRIDIUM 152             
1 43479U 18047D   26095.47280275  .00000010  00000+0 -34119-5 0  9998
2 43479  86.3932 118.7454 0002001  91.3147 268.8278 14.34217637412060
IRIDIUM 147             
1 43480U 18047E   26095.54891486  .00000042  00000+0  77946-5 0  9999
2 43480  86.3931 118.7177 0002378  92.5247 267.6221 14.34217932412078
IRIDIUM 110             
1 43481U 18047F   26095.55525651  .00000014  00000+0 -21752-5 0  9993
2 43481  86.3932 118.8049 0001969  85.6061 274.5360 14.34217715412060
IRIDIUM 162             
1 43482U 18047G   26095.57329114  .00000198  00000+0  52947-4 0  9993
2 43482  86.4453 118.7349 0002244  94.9373 265.2084 14.43277328414651
IRIDIUM 160             
1 43569U 18061A   26095.50109238  .00000041  00000+0  74129-5 0  9995
2 43569  86.3914  87.1923 0002212  86.4080 273.7369 14.34217917402959
IRIDIUM 166             
1 43570U 18061B   26095.45669529  .00000015  00000+0 -17167-5 0  9996
2 43570  86.3911  87.1625 0002240  89.8530 270.2923 14.34217603402977
IRIDIUM 158             
1 43571U 18061C   26095.49475002 -.00000011  00000+0 -11097-4 0  9994
2 43571  86.3911  87.1565 0002010  92.1965 267.9461 14.34217339402948
IRIDIUM 165             
1 43572U 18061D   26095.52012006 -.00000022  00000+0 -14851-4 0  9993
2 43572  86.3915  87.1910 0002254  89.8287 270.3167 14.34217304402973
IRIDIUM 155             
1 43573U 18061E   26095.48206450  .00000005  00000+0 -52058-5 0  9999
2 43573  86.3909  87.0794 0002148  93.4672 266.6770 14.34217560402935
IRIDIUM 154             
1 43574U 18061F   26095.39326899  .00000008  00000+0 -43131-5 0  9995
2 43574  86.3913  87.2464 0002420  89.3085 270.8388 14.34217682402973
IRIDIUM 163             
1 43575U 18061G   26095.51377746  .00000015  00000+0 -16730-5 0  9990
2 43575  86.3911  87.1137 0002032  90.3334 269.8095 14.34217532402962
IRIDIUM 156             
1 43576U 18061H   26095.48840564  .00000109  00000+0  31883-4 0  9998
2 43576  86.3909  87.1314 0002278  93.7096 266.4361 14.34217491402953
IRIDIUM 164             
1 43577U 18061J   26095.46937956 -.00000034  00000+0 -19286-4 0  9991
2 43577  86.3912  87.1789 0002268  86.0516 274.0939 14.34217408402993
IRIDIUM 159             
1 43578U 18061K   26095.50743431  .00000034  00000+0  51322-5 0  9996
2 43578  86.3911  87.1010 0002134  86.2560 273.8880 14.34217913402963
IRIDIUM 180             
1 43922U 19002A   26095.50693122  .00000224  00000+0  73060-4 0  9999
2 43922  86.4016  23.9623 0002149  82.0267 278.1173 14.34218062378573
IRIDIUM 176             
1 43923U 19002B   26095.29760546  .00001504  00000+0  23459-3 0  9999
2 43923  86.6136  24.0034 0002665  85.4816 274.6706 14.72254562388523
IRIDIUM 168             
1 43924U 19002C   26095.50058769  .00000342  00000+0  11508-3 0  9992
2 43924  86.4019  24.0401 0002160  85.5657 274.5785 14.34216982378554
